332P-F/Ikeya-Murakami,e,9.5293,3.4757,152.8203,3.163214,0.1751908,0.49918860,359.8501,03/17.0/2016,2000,g 21.0,4.0
# From MPEC 2016-ED0
332P-G/Ikeya-Murakami,e,9.2523,3.6955,154.4000,3.050519,0.1849880,0.49200362,359.9006,03/19.0/2016,2000,g 19.0,4.0
# From MPC100285
332P-H/Ikeya-Murakami,e,9.3794,3.7874,152.3349,3.089417,0.1815053,0.48952491,343.3555,05/19.0/2021,2000,g 19.0,4.0
# From MPEC 2016-ED0
332P-I/Ikeya-Murakami,e,9.3791,3.8048,152.3297,3.081767,0.1821815,0.48955490,359.9360,03/17.0/2016,2000,g 20.5,2.0
# From MPEC 2016-EI8
332P-J/Ikeya-Murakami,e,9.4296,3.6729,152.7712,3.115165,0.1792596,0.49429435,359.8613,03/17.0/2016,2000,g 20.5,2.0
# From MPEC 2020-L06
333P/LINEAR,e,131.9803,115.6256,26.0080,4.219102,0.1137297,0.73678508,213.2414,05/19.0/2021,2000,g 15.0,4.0
# From MPC115888
334P/NEAT,e,20.4346,90.6790,90.0656,6.838648,0.0551123,0.35170954,79.4733,05/19.0/2021,2000,g 10.5,4.0
# From MPC100285
335P/Gibbs,e,7.2935,330.8482,162.2661,3.577978,0.1456289,0.54582320,294.4590,05/19.0/2021,2000,g 17.0,4.0
# From MPC105244
336P/McNaught,e,17.8336,298.2309,308.7580,5.032362,0.0873064,0.44509375,136.7679,05/19.0/2021,2000,g 13.5,4.0
# From MPC115888
337P/WISE,e,15.3721,106.0693,161.0005,3.287179,0.1653747,0.49679123,292.5131,05/19.0/2021,2000,g 17.0,4.0
# From MPC104796
338P/McNaught,e,25.3792,9.7901,4.4022,3.897114,0.1281119,0.41145514,209.8426,05/19.0/2021,2000,g 12.0,4.0
# From MPC101101
339P/Gibbs,e,5.7339,172.7328,27.5157,3.696639,0.1386735,0.63557541,244.3317,05/19.0/2021,2000,g 17.0,4.0
# From MPC102957
340P/Boattini,e,2.0793,291.7208,35.8465,4.251198,0.1124442,0.28077299,184.4461,05/19.0/2021,2000,g 13.0,4.0
# From MPEC 2021-BE3
341P/Gibbs,e,3.7956,29.9802,312.1539,4.293420,0.1107896,0.41547218,201.1555,05/19.0/2021,2000,g 12.5,4.0
# From MPC101101
342P/SOHO,e,11.6663,27.7801,73.2014,3.043105,0.1856644,0.98279075,0.0000,10/19.2941/2021,2000,g  9.0,4.0
# From MPC109148
343P/NEAT-LONEOS,e,5.5845,257.2049,137.3769,5.460347,0.0772456,0.58422203,121.3977,05/19.0/2021,2000,g 14.0,4.0
# From MPC109148
344P/Read,e,3.4909,273.1733,140.3823,4.865626,0.0918324,0.42194394,152.4579,05/19.0/2021,2000,g 13.0,4.0
# From MPC109148
345P/LINEAR,e,2.7271,154.5055,196.3946,4.038736,0.1214328,0.22102337,214.4547,05/19.0/2021,2000,g 12.0,4.0
# From MPC110086
346P/Catalina,e,22.1869,102.4658,335.9783,4.475723,0.1040901,0.50238274,161.9187,05/19.0/2021,2000,g 14.0,4.0
# From MPC108599
347P/PANSTARRS,e,11.7495,261.0312,98.3341,3.606119,0.1439276,0.38574745,245.9949,05/19.0/2021,2000,g 15.0,4.0
# From MPEC 2020-SI8
348P/PANSTARRS,e,17.7405,312.9418,135.6269,3.150360,0.1762641,0.30669581,312.5087,05/19.0/2021,2000,g 14.0,4.0
# From MPC112394
349P/Lemmon,e,5.4909,331.7439,256.0438,3.573187,0.1459219,0.29899454,198.8334,05/19.0/2021,2000,g 14.0,4.0
# From MPC111775
350P/McNaught,e,7.3574,65.3370,140.1884,4.091546,0.1190893,0.09152116,148.9834,05/19.0/2021,2000,g 14.0,4.0
# From MPC105244
351P/Wiegert-PANSTARRS,e,12.7879,283.4485,352.6644,4.437563,0.1054356,0.29586195,211.7078,05/19.0/2021,2000,g 12.5,4.0
# From MPC110086
352P/Skiff,e,21.0091,28.0644,309.1927,6.637765,0.0576330,0.61822599,82.2104,05/19.0/2021,2000,g 11.5,4.0
# From MPEC 2020-AA5
353P/McNaught,e,28.4241,121.5615,230.3844,4.171259,0.1156920,0.47013158,143.9338,05/19.0/2021,2000,g 14.5,4.0
# From MPC105545
354P/LINEAR,e,5.2556,320.1289,132.9590,2.289575,0.2844931,0.12567507,110.0334,05/19.0/2021,2000,g 15.5,4.0
# From MPEC 2020-AA5
355P/LINEAR-NEAT,e,11.0394,51.4327,336.2526,3.471819,0.1523591,0.50718060,200.1866,05/19.0/2021,2000,g 15.5,2.0
# From MPEC 2021-F20
356P/WISE,e,9.6370,160.7940,225.9926,4.159707,0.1161743,0.35500654,145.0556,05/19.0/2021,2000,g 14.0,4.0
# From MPC114609
357P/Hill,e,6.3115,44.5703,1.3974,4.460641,0.1046184,0.43479450,113.6153,05/19.0/2021,2000,g 15.5,4.0
# From MPEC 2020-HN5
358P/PANSTARRS,e,11.0579,85.7079,299.7297,3.147690,0.1764884,0.23842269,200.0132,05/19.0/2021,2000,g 18.0,4.0
# From MPC110086
359P/LONEOS,e,10.2670,149.7559,200.1574,4.639634,0.0986231,0.32409412,134.7563,05/19.0/2021,2000,g 13.5,4.0
# From MPC108599
360P/WISE,e,24.1045,2.1902,354.1271,3.702255,0.1383581,0.49889982,189.3379,05/19.0/2021,2000,g 19.5,6.0
# From MPC114609
361P/Spacewatch,e,13.8922,203.2505,219.0574,4.938793,0.0897993,0.43804446,94.4505,05/19.0/2021,2000,g 12.0,4.0
# From MPEC 2017-V13
362P/,e,15.5566,192.5692,53.7008,3.968862,0.1246537,0.27946743,215.6132,05/19.0/2021,2000,g 12.9,2.0
# From MPC114609
363P/Lemmon,e,5.3959,146.9374,341.2766,3.548203,0.1474658,0.52667420,172.6446,05/19.0/2021,2000,g 17.5,4.0
# From MPEC 2021-F20
364P/PANSTARRS,e,12.1404,46.1917,212.0056,2.879252,0.2017366,0.72221652,213.7793,05/19.0/2021,2000,g 17.0,2.0
# From MPC111775
365P/PANSTARRS,e,9.8269,87.2598,66.3284,3.175684,0.1741599,0.57710828,207.5256,05/19.0/2021,2000,g 17.0,4.0
# From MPC114610
366P/Spacewatch,e,8.8589,70.7584,153.1422,3.495730,0.1507986,0.34827832,155.8239,05/19.0/2021,2000,g 15.0,4.0
# From MPC112395
367P/Catalina,e,8.4625,58.7205,172.9088,3.505685,0.1501567,0.28025569,159.6354,05/19.0/2021,2000,g 17.5,2.0
# From MPC114610
368P/NEAT,e,15.4815,257.9436,118.7915,5.527047,0.0758515,0.62640147,74.1350,05/19.0/2021,2000,g 14.0,4.0
# From MPC114610
369P/Hill,e,10.3139,47.2958,13.1819,4.384435,0.1073578,0.55442338,101.6516,05/19.0/2021,2000,g 15.0,4.0
# From MPEC 2021-F20
370P/NEAT,e,19.4048,55.1178,356.6840,6.435071,0.0603773,0.61459269,64.8719,05/19.0/2021,2000,g 13.0,4.0
# From MPC114610
371P/LINEAR-Skiff,e,17.3776,67.3015,308.4625,4.181107,0.1152835,0.47664277,110.3317,05/19.0/2021,2000,g 16.0,4.0
# From MPEC 2020-K19
372P/McNaught,e,9.5101,325.8160,27.2983,4.504414,0.1030971,0.15271195,96.9150,05/19.0/2021,2000,g 13.5,4.0
# From MPEC 2021-F20
373P/Rinner,e,13.7613,231.9480,221.1028,3.803708,0.1328597,0.39219546,102.4648,05/19.0/2021,2000,g 14.5,4.0
# From MPC114610
374P/Larson,e,10.7634,7.9120,51.4935,4.973775,0.0888536,0.46251747,76.3498,05/19.0/2021,2000,g 14.0,4.0
# From MPEC 2021-F20
375P/Hill,e,17.3612,359.9442,119.4605,5.556564,0.0752479,0.65858055,66.2177,05/19.0/2021,2000,g 16.0,4.0
# From MPEC 2020-W26
376P/LONEOS,e,1.1914,314.7951,284.8047,5.837622,0.0698796,0.51747185,41.9235,05/19.0/2021,2000,g 12.5,4.0
# From MPEC 2020-FB5
377P/Scotti,e,9.0232,226.0600,355.0283,6.710717,0.0566958,0.25236468,17.6403,05/19.0/2021,2000,g  9.5,4.0
# From MPEC 2019-TG9
378P/McNaught,e,19.0642,94.4379,193.9254,6.384122,0.0611016,0.47064880,12.8984,05/19.0/2021,2000,g 12.0,4.0
# From MPC115889
379P/Spacewatch,e,12.4178,183.8324,31.0171,3.522057,0.1491109,0.33991665,97.9409,05/19.0/2021,2000,g 15.0,4.0
# From MPEC 2020-KB7
380P/PANSTARRS,e,8.2850,132.9863,88.6658,4.516099,0.1026973,0.33251015,73.5382,05/19.0/2021,2000,g 12.5,4.0
# From MPEC 2021-J28
381P/LINEAR-Spacewatch,e,28.3757,173.7718,173.1654,7.123369,0.0518413,0.68184347,31.1024,05/19.0/2021,2000,g 17.5,2.0
# From MPEC 2021-J28
382P/Larson,e,7.8439,175.2769,173.4933,6.375998,0.0612184,0.30973604,341.1574,05/19.0/2021,2000,g  8.0,4.0
# From MPC118844
383P/Christensen,e,12.3211,207.8706,133.6785,3.545218,0.1476521,0.59960388,84.2637,05/19.0/2021,2000,g 18.0,4.0
# From MPEC 2020-W26
384P/Kowalski,e,7.2836,354.2276,37.6228,2.901121,0.1994598,0.61556531,116.7804,05/19.0/2021,2000,g 19.5,4.0
# From MPEC 2021-F20
385P/Hill,e,16.8294,357.0624,44.3263,4.288394,0.1109844,0.40147116,67.9387,05/19.0/2021,2000,g 13.0,4.0
# From MPEC 2021-J28
386P/PANSTARRS,e,15.2296,134.9479,353.2278,4.056983,0.1206145,0.41631226,32.8935,05/19.0/2021,2000,g 14.5,4.0
# From MPEC 2021-J28
387P/Boattini,e,8.9186,259.3188,162.7730,4.798723,0.0937596,0.73609435,58.2042,05/19.0/2021,2000,g 15.0,4.0
# From MPEC 2021-F20
388P/Gibbs,e,23.8675,37.0430,42.3651,5.244374,0.0820661,0.61800231,54.6107,05/19.0/2021,2000,g 13.0,4.0
# From MPEC 2021-J28
389P/Siding Spring,e,160.0682,218.8516,249.3046,5.626862,0.0738422,0.70432934,37.4220,05/19.0/2021,2000,g 16.0,4.0
# From MPEC 2021-J28
390P/Gibbs,e,18.5613,152.2751,232.3513,5.803321,0.0705000,0.70711430,29.8013,05/19.0/2021,2000,g 12.0,4.0
# From MPEC 2021-F20
391P/Kowalski,e,21.2760,124.7307,186.9637,4.678757,0.0973887,0.12069105,112.4891,05/19.0/2021,2000,g  8.0,4.0
# From MPEC 2021-J28
392P/LINEAR,e,4.9302,24.8809,71.9656,6.146173,0.0646840,0.68279608,26.7282,05/19.0/2021,2000,g 14.5,4.0
# From MPEC 2021-BE3
393P/Spacewatch-Hill,e,16.7914,36.4169,328.2250,4.786444,0.0941206,0.12053486,53.7840,05/19.0/2021,2000,g 11.0,4.0
# From MPEC 2020-KB7
394P/PANSTARRS,e,8.5295,98.1249,54.5192,4.332137,0.1093077,0.36788634,58.5538,05/19.0/2021,2000,g 16.0,2.4
# From MPEC 2021-J28
395P/Catalina-NEAT,e,3.2778,223.7662,89.7939,6.538823,0.0589460,0.37836176,346.6860,05/19.0/2021,2000,g 10.0,4.0
# From MPEC 2020-KB7
396P/,e,5.4363,136.6637,8.6024,6.818499,0.0553568,0.41597042,34.8415,05/19.0/2021,2000,g 12.0,4.0
# From MPEC 2021-F20
397P/Lemmon,e,10.9283,8.2044,14.4319,3.827358,0.1316302,0.40505006,43.9154,05/19.0/2021,2000,g 12.0,4.0
# From MPEC 2021-J28
398P/Boattini,e,11.0154,127.4621,320.2358,3.128350,0.1781275,0.58263928,25.5174,05/19.0/2021,2000,g 15.5,4.0
# From MPEC 2021-F20
399P/PANSTARRS,e,13.3191,207.1465,214.2922,3.789024,0.1336328,0.44681536,359.5231,05/19.0/2021,2000,g 15.6,4.0
# From MPEC 2020-FB5
400P/PANSTARRS,e,10.9290,176.3962,238.7899,3.559609,0.1467576,0.40910564,14.3671,05/19.0/2021,2000,g 15.5,2.8
# From MPEC 2021-BE3
401P/McNaught,e,12.8038,359.8870,309.3233,5.772380,0.0710676,0.58012161,37.5501,05/19.0/2021,2000,g 12.5,4.0
# From MPEC 2021-J28
402P/LINEAR,e,30.8528,123.0889,326.7462,7.009714,0.0531072,0.43823281,348.8664,05/19.0/2021,2000,g  8.0,4.0
# From MPEC 2021-J28
403P/Catalina,e,12.3207,163.8131,277.6678,5.427162,0.0779552,0.50339594,19.0712,05/19.0/2021,2000,g 12.0,4.0
# From MPEC 2020-W26
404P/Bressi,e,9.7517,262.0263,161.3937,4.833118,0.0927605,0.13717028,281.1297,05/19.0/2021,2000,g 10.0,4.0
# From MPEC 2021-J28
405P/Lemmon,e,9.3652,3.3126,112.2435,3.609229,0.1437416,0.68916698,20.9413,05/19.0/2021,2000,g 17.5,4.0
# From MPEC 2021-F20
